IRIDIUM 159             
1 43578U 18061K   24141.72941663  .00000062  00000+0  14945-4 0  9997
2 43578  86.3996  13.2595 0002552  87.2672 272.8816 14.34213581304813
IRIDIUM 180             
1 43922U 19002A   24142.56614109  .00000463  00000+0  15827-3 0  9995
2 43922  86.3935 309.7979 0002288  90.7692 269.3766 14.34213955280582
IRIDIUM 176             
1 43923U 19002B   24141.86285977  .00003009  00000+0  47290-3 0  9993
2 43923  86.6063 310.1165 0002638  90.3256 269.8264 14.72279719287826
IRIDIUM 168             
1 43924U 19002C   24142.55979594  .00000336  00000+0  11289-3 0  9995
2 43924  86.3938 309.8564 0002190  96.7567 263.3878 14.34213328280523
IRIDIUM 173             
1 43925U 19002D   24141.84943021  .00000529  00000+0  18198-3 0  9993
2 43925  86.3935 310.0738 0002238  88.7922 271.3530 14.34213405280415
IRIDIUM 169             
1 43926U 19002E   24142.55495740  .00000779  00000+0  24823-3 0  9992
2 43926  86.4223 341.4022 0002001  23.9025 336.2265 14.38611936281449
IRIDIUM 172             
1 43927U 19002F   24142.54077349  .00000289  00000+0  96126-4 0  9995
2 43927  86.3935 309.7904 0002256  90.9313 269.2141 14.34214033280519
IRIDIUM 175             
1 43928U 19002G   24141.44920022  .00003217  00000+0  50594-3 0  9991
2 43928  86.1477 284.9880 0001967  83.1168 277.0272 14.72266304287751
